NORAD_CAT_ID,OBJECT_NAME,OBJECT_TYPE,EPOCH,MEAN_MOTION,ECCENTRICITY,INCLINATION,RA_OF_ASC_NODE,ARG_OF_PERICENTER,MEAN_ANOMALY,BSTAR,MEAN_MOTION_DOT,MEAN_MOTION_DDOT,TLE_LINE0,TLE_LINE1,TLE_LINE2,SEMIMAJOR_AXIS,PERIOD,APOGEE,PERIGEE,DECAYED
52876.0,STARLINK-4200,PAYLOAD,2023-02-22 21:55:10,15.08820831,0.0001296,53.2169,320.5889,104.6161,255.4975,0.00068486,0.00010623,0.0,0 STARLINK-4200,1 52876U 22062AY  23053.91331296  .00010623  00000-0  68486-3 0  9994,2 52876  53.2169 320.5889 0001296 104.6161 255.4975 15.08820831 38372,6917.939,95.439,540.701,538.907,0.0
52876.0,STARLINK-4200,PAYLOAD,2023-02-23 02:41:19,15.08827668,0.0001027,53.217,319.6959,101.1889,258.9218,0.00049737,7.634e-05,0.0,0 STARLINK-4200,1 52876U 22062AY  23054.11203429  .00007634  00000-0  49737-3 0  9999,2 52876  53.2170 319.6959 0001027 101.1889 258.9218 15.08827668 38409,6917.918,95.438,540.494,539.073,0.0
52876.0,STARLINK-4200,PAYLOAD,2023-02-23 18:35:11,15.08859786,0.0001025,53.2163,316.7235,83.9147,276.1962,0.0013932,0.00021966,0.0,0 STARLINK-4200,1 52876U 22062AY  23054.77443331  .00021966  00000-0  13932-2 0  9990,2 52876  53.2163 316.7235 0001025  83.9147 276.1962 15.08859786 38503,6917.82,95.436,540.394,538.976,0.0
52876.0,STARLINK-4200,PAYLOAD,2023-02-23 23:21:20,15.08877066,0.0001093,53.2159,315.8318,79.4872,280.6244,0.0018247,0.00028901,0.0,0 STARLINK-4200,1 52876U 22062AY  23054.97314892  .00028901  00000-0  18247-2 0  9991,2 52876  53.2159 315.8318 0001093  79.4872 280.6244 15.08877066 39022,6917.767,95.435,540.388,538.876,0.0
52876.0,STARLINK-4200,PAYLOAD,2023-02-24 00:56:43,15.0888212,0.0001145,53.216,315.5344,79.3848,280.7273,0.0018502,0.00029315,0.0,0 STARLINK-4200,1 52876U 22062AY  23055.03938699  .00029315  00000-0  18502-2 0  9990,2 52876  53.2160 315.5344 0001145  79.3848 280.7273 15.08882120 38546,6917.752,95.435,540.409,538.825,0.0
52876.0,STARLINK-4200,PAYLOAD,2023-02-24 16:50:34,15.08851007,0.0001305,53.2162,312.5603,87.4971,272.617,0.00054798,8.447e-05,0.0,0 STARLINK-4200,1 52876U 22062AY  23055.70178732  .00008447  00000-0  54798-3 0  9999,2 52876  53.2162 312.5603 0001305  87.4971 272.6170 15.08851007 39130,6917.847,95.437,540.615,538.809,0.0
52876.0,STARLINK-4200,PAYLOAD,2023-02-24 20:01:20,15.0885316,9.96e-05,53.2158,311.9657,66.9412,293.1685,0.0011797,0.00018544,0.0,0 STARLINK-4200,1 52876U 22062AY  23055.83426696  .00018544  00000-0  11797-2 0  9998,2 52876  53.2158 311.9657 0000996  66.9412 293.1685 15.08853160 38662,6917.84,95.437,540.394,539.016,0.0
52876.0,STARLINK-4200,PAYLOAD,2023-02-25 02:22:53,15.08845164,0.0001259,53.2159,310.7758,95.4064,264.7071,0.00092843,0.00014521,0.0,0 STARLINK-4200,1 52876U 22062AY  23056.09922727  .00014521  00000-0  92843-3 0  9996,2 52876  53.2159 310.7758 0001259  95.4064 264.7071 15.08845164 39192,6917.865,95.437,540.601,538.859,0.0
52876.0,STARLINK-4200,PAYLOAD,2023-02-25 19:52:08,15.08844492,0.0001158,53.2161,307.5048,103.233,256.8792,0.0014802,0.00023351,0.0,0 STARLINK-4200,1 52876U 22062AY  23056.82787348  .00023351  00000-0  14802-2 0  9994,2 52876  53.2161 307.5048 0001158 103.2330 256.8792 15.08844492 38816,6917.867,95.437,540.533,538.931,0.0
52876.0,STARLINK-4200,PAYLOAD,2023-02-26 02:13:40,15.08842143,0.0001465,53.2164,306.3122,106.1947,253.9206,0.00071574,0.00011122,0.0,0 STARLINK-4200,1 52876U 22062AY  23057.09283262  .00011122  00000-0  71574-3 0  9993,2 52876  53.2164 306.3122 0001465 106.1947 253.9206 15.08842143 39344,6917.874,95.437,540.752,538.725,0.0
52876.0,STARLINK-4200,PAYLOAD,2023-02-26 22:53:40,15.08870919,0.000133,53.2168,302.448,91.9523,268.1622,0.0010887,0.00017096,0.0,0 STARLINK-4200,1 52876U 22062AY  23057.95394390  .00017096  00000-0  10887-2 0  9998,2 52876  53.2168 302.4480 0001330  91.9523 268.1622 15.08870919 39470,6917.786,95.436,540.571,538.731,0.0
52876.0,STARLINK-4200,PAYLOAD,2023-02-27 16:22:54,15.08883546,0.0001284,53.2171,299.1755,88.2333,271.8807,0.0015456,0.00024425,0.0,0 STARLINK-4200,1 52876U 22062AY  23058.68257659  .00024425  00000-0  15456-2 0  9996,2 52876  53.2171 299.1755 0001284  88.2333 271.8807 15.08883546 39585,6917.747,95.435,540.501,538.724,0.0
52876.0,STARLINK-4200,PAYLOAD,2023-02-28 22:35:15,15.08803164,0.0001122,53.2173,293.528,90.7891,269.323,-0.00018792,-3.274e-05,0.0,0 STARLINK-4200,1 52876U 22062AY  23059.94115695 -.00003274  00000-0 -18792-3 0  9997,2 52876  53.2173 293.5280 0001122  90.7891 269.3230 15.08803164 39283,6917.993,95.44,540.634,539.082,0.0
52876.0,STARLINK-4200,PAYLOAD,2023-03-01 06:32:12,15.08811102,0.0001191,53.2173,292.0414,95.0904,265.0224,0.00055017,8.472e-05,0.0,0 STARLINK-4200,1 52876U 22062AY  23060.27236455  .00008472  00000-0  55017-3 0  9997,2 52876  53.2173 292.0414 0001191  95.0904 265.0224 15.08811102 39822,6917.969,95.439,540.658,539.01,0.0
52876.0,STARLINK-4200,PAYLOAD,2023-03-01 22:26:04,15.08837823,0.0001046,53.217,289.0677,91.3891,268.7221,0.0010606,0.00016631,0.0,0 STARLINK-4200,1 52876U 22062AY  23060.93476969  .00016631  00000-0  10606-2 0  9996,2 52876  53.2170 289.0677 0001046  91.3891 268.7221 15.08837823 39431,6917.887,95.438,540.476,539.028,0.0
52876.0,STARLINK-4200,PAYLOAD,2023-03-02 00:01:27,15.08844571,0.0001062,53.2168,288.7706,97.5211,262.5901,0.0012894,0.00020295,0.0,0 STARLINK-4200,1 52876U 22062AY  23061.00100922  .00020295  00000-0  12894-2 0  9990,2 52876  53.2168 288.7706 0001062  97.5211 262.5901 15.08844571 39939,6917.866,95.437,540.466,538.997,0.0
52876.0,STARLINK-4200,PAYLOAD,2023-03-02 19:06:04,15.08864656,9.98e-05,53.2158,285.2028,96.6841,263.4264,0.0010845,0.00017026,0.0,0 STARLINK-4200,1 52876U 22062AY  23061.79588223  .00017026  00000-0  10845-2 0  9992,2 52876  53.2158 285.2028 0000998  96.6841 263.4264 15.08864656 39560,6917.805,95.436,540.36,538.98,0.0
52876.0,STARLINK-4200,PAYLOAD,2023-03-02 23:52:13,15.0887448,9.9e-05,53.2158,284.3103,99.3942,260.7162,0.0011471,0.00018032,0.0,0 STARLINK-4200,1 52876U 22062AY  23061.99459771  .00018032  00000-0  11471-2 0  9993,2 52876  53.2158 284.3103 0000990  99.3942 260.7162 15.08874480 40080,6917.775,95.435,540.325,538.955,0.0
52876.0,STARLINK-4200,PAYLOAD,2023-03-03 22:07:36,15.08874139,0.0001152,53.216,280.1479,84.8883,275.224,0.0010683,0.00016771,0.0,0 STARLINK-4200,1 52876U 22062AY  23062.92195066  .00016771  00000-0  10683-2 0  9993,2 52876  53.2160 280.1479 0001152  84.8883 275.2240 15.08874139 40222,6917.776,95.435,540.438,538.844,0.0
52876.0,STARLINK-4200,PAYLOAD,2023-03-04 14:01:28,15.08839885,0.0001219,53.2159,277.1737,82.0814,278.0316,0.00069326,0.00010762,0.0,0 STARLINK-4200,1 52876U 22062AY  23063.58435493  .00010762  00000-0  69326-3 0  9990,2 52876  53.2159 277.1737 0001219  82.0814 278.0316 15.08839885 40326,6917.881,95.438,540.589,538.902,0.0
52876.0,STARLINK-4200,PAYLOAD,2023-03-04 20:23:01,15.08838657,0.0001159,53.2161,275.9838,64.3725,295.7386,0.0010407,0.00016313,0.0,0 STARLINK-4200,1 52876U 22062AY  23063.84931906  .00016313  00000-0  10407-2 0  9992,2 52876  53.2161 275.9838 0001159  64.3725 295.7386 15.08838657 39871,6917.884,95.438,540.551,538.948,0.0
52876.0,STARLINK-4200,PAYLOAD,2023-03-05 20:13:48,15.08848101,0.0001371,53.2158,271.5235,68.0874,292.0264,0.000708,0.00011,0.0,0 STARLINK-4200,1 52876U 22062AY  23064.84292160  .00011000  00000-0  70800-3 0  9997,2 52876  53.2158 271.5235 0001371  68.0874 292.0264 15.08848101 40515,6917.856,95.437,540.669,538.772,0.0
52876.0,STARLINK-4200,PAYLOAD,2023-03-06 13:43:02,15.08843554,0.0001079,53.2148,268.2522,66.3081,293.8024,0.00023268,3.418e-05,0.0,0 STARLINK-4200,1 52876U 22062AY  23065.57156076  .00003418  00000-0  23268-3 0  9993,2 52876  53.2148 268.2522 0001079  66.3081 293.8024 15.08843554 40624,6917.87,95.437,540.481,538.988,0.0
52876.0,STARLINK-4200,PAYLOAD,2023-03-07 19:55:22,15.08856139,6.99e-05,53.2169,262.6022,69.8504,290.2563,0.00064403,9.981e-05,0.0,0 STARLINK-4200,1 52876U 22062AY  23066.83011732  .00009981  00000-0  64403-3 0  9999,2 52876  53.2169 262.6022 0000699  69.8504 290.2563 15.08856139 40818,6917.831,95.437,540.18,539.213,0.0
52876.0,STARLINK-4200,PAYLOAD,2023-03-08 13:24:36,15.08841344,0.0001335,53.2174,259.3311,107.1206,252.9933,8.5836e-05,1.078e-05,0.0,0 STARLINK-4200,1 52876U 22062AY  23067.55875914  .00001078  00000-0  85836-4 0  9992,2 52876  53.2174 259.3311 0001335 107.1206 252.9933 15.08841344 40921,6917.876,95.437,540.665,538.818,0.0
52876.0,STARLINK-4200,PAYLOAD,2023-03-08 21:21:32,15.0885338,0.000129,53.2172,257.8452,100.4299,259.6838,0.00054512,8.401e-05,0.0,0 STARLINK-4200,1 52876U 22062AY  23067.88995835  .00008401  00000-0  54512-3 0  9996,2 52876  53.2172 257.8452 0001290 100.4299 259.6838 15.08853380 40488,6917.839,95.437,540.597,538.812,0.0
52876.0,STARLINK-4200,PAYLOAD,2023-03-09 19:36:56,15.08846698,0.0001337,53.2175,253.6818,97.7345,262.3799,0.00019896,2.881e-05,0.0,0 STARLINK-4200,1 52876U 22062AY  23068.81731896  .00002881  00000-0  19896-3 0  9997,2 52876  53.2175 253.6818 0001337  97.7345 262.3799 15.08846698 41115,6917.86,95.437,540.65,538.8,0.0
52876.0,STARLINK-4200,PAYLOAD,2023-03-10 11:30:48,15.08837285,0.0001586,53.2158,250.7081,90.613,269.5044,0.00013296,1.829e-05,0.0,0 STARLINK-4200,1 52876U 22062AY  23069.47972586  .00001829  00000-0  13296-3 0  9992,2 52876  53.2158 250.7081 0001586  90.6130 269.5044 15.08837285 41211,6917.889,95.438,540.851,538.657,0.0
52876.0,STARLINK-4200,PAYLOAD,2023-03-10 19:27:44,15.08834312,0.0001305,53.2157,249.2212,88.0814,272.0327,3.3441e-05,2.44e-06,0.0,0 STARLINK-4200,1 52876U 22062AY  23069.81092658  .00000244  00000-0  33441-4 0  9998,2 52876  53.2157 249.2212 0001305  88.0814 272.0327 15.08834312 40779,6917.898,95.438,540.666,538.86,0.0
52876.0,STARLINK-4200,PAYLOAD,2023-03-11 11:21:35,15.08840532,0.0001353,53.2164,246.2482,89.4679,270.6468,0.00018617,2.676e-05,0.0,0 STARLINK-4200,1 52876U 22062AY  23070.47332765  .00002676  00000-0  18617-3 0  9996,2 52876  53.2164 246.2482 0001353  89.4679 270.6468 15.08840532 40872,6917.879,95.438,540.68,538.808,0.0
